{"fetched_at":"2026-04-05T12:57:33Z","count":17389,"tles":[{"name":"COSMOS 2501 (702K)","line1":"1 40315U 14075A   26084.30325579  .00000001  00000+0  00000+0 0  9993","line2":"2 40315  63.6158 193.2737 0021182 207.3153 152.5805  2.13101287 88064","category":"Other"}]}